[{"OBJECT_NAME":"JILIN-1 GAOFEN 3A","OBJECT_ID":"2019-032C","EPOCH":"2026-03-09T17:53:24.364896","MEAN_MOTION":15.3027131,"ECCENTRICITY":0.00026181,"INCLINATION":44.9746,"RA_OF_ASC_NODE":183.2861,"ARG_OF_PERICENTER":111.29,"MEAN_ANOMALY":248.8263,"EPHEMERIS_TYPE":0,"CLASSIFICATION_TYPE":"U","NORAD_CAT_ID":44312,"ELEMENT_SET_NO":999,"REV_AT_EPOCH":37259,"BSTAR":0.00055381133,"MEAN_MOTION_DOT":0.00016264,"MEAN_MOTION_DDOT":0},{"OBJECT_NAME":"STARLINK-2621","OBJECT_ID":"2021-038T","EPOCH":"2026-03-09T23:14:44.683872","MEAN_MOTION":15.30199654,"ECCENTRICITY":0.00015531,"INCLINATION":53.1618,"RA_OF_ASC_NODE":346.4868,"ARG_OF_PERICENTER":94.9068,"MEAN_ANOMALY":265.211,"EPHEMERIS_TYPE":0,"CLASSIFICATION_TYPE":"U","NORAD_CAT_ID":48370,"ELEMENT_SET_NO":999,"REV_AT_EPOCH":26726,"BSTAR":3.432189e-5,"MEAN_MOTION_DOT":6.57e-6,"MEAN_MOTION_DDOT":0}]
